OBJECT_NAME,OBJECT_ID,EPOCH,MEAN_MOTION,ECCENTRICITY,INCLINATION,RA_OF_ASC_NODE,ARG_OF_PERICENTER,MEAN_ANOMALY,EPHEMERIS_TYPE,CLASSIFICATION_TYPE,NORAD_CAT_ID,ELEMENT_SET_NO,REV_AT_EPOCH,BSTAR,MEAN_MOTION_DOT,MEAN_MOTION_DDOT
PROBA-1,2001-049B,2026-06-06T06:01:00.212160,15.07443365,.00554288,97.9597,165.4025,158.3457,202.0132,0,U,26958,999,34197,.97469803E-4,.1457E-4,0
CUTE-1 (CO-55),2003-031E,2026-06-03T13:11:18.293856,14.24327019,.00086909,98.6736,163.2800,219.4250,140.6297,0,U,27844,999,18973,.16425086E-3,.336E-5,0
CUBESAT XI-IV (CO-57),2003-031J,2026-06-05T11:58:40.543104,14.23614506,.00084109,98.6767,164.9270,233.7946,126.2455,0,U,27848,999,18971,.13674905E-3,.268E-5,0
APRIZESAT 4,2009-041D,2026-06-05T10:57:18.689184,14.83863132,.00432592,98.1412,231.5431,1.5163,358.6174,0,U,35684,999,90962,.10227211E-3,.803E-5,0
APRIZESAT 3,2009-041F,2026-06-05T20:43:55.046784,14.96210103,.00629038,98.2058,309.5466,104.1363,256.6857,0,U,35686,999,91468,.13749956E-3,.1545E-4,0
PROBA-2,2009-059B,2026-06-05T19:46:09.135840,14.54857570,.00123473,98.2450,340.3343,320.3129,39.7163,0,U,36037,999,87987,.61328772E-4,.218E-5,0
APRIZESAT 5,2011-044E,2026-06-06T01:30:09.675072,14.81051743,.00531679,98.2452,89.7881,39.7611,320.7478,0,U,37792,999,79714,.18210312E-3,.1388E-4,0
APRIZESAT 6,2011-044F,2026-06-05T12:23:27.282336,14.76898404,.00442385,98.2372,66.7773,122.3000,58.2477,0,U,37793,999,79542,.12179529E-3,.814E-5,0
PROBA-V,2013-021A,2026-06-05T20:57:57.643776,14.23594612,.00046043,98.3579,136.0391,151.0666,209.0769,0,U,39159,999,67950,.60122157E-4,.96E-6,0
APRIZESAT 7,2013-066A,2026-06-06T03:38:42.719712,14.91541126,.00343549,97.7702,110.5307,247.0865,112.6726,0,U,39416,999,67958,.15777434E-3,.154E-4,0
APRIZESAT 8,2013-066K,2026-06-06T02:39:11.624544,14.87630914,.00450201,97.8216,104.7333,324.0466,35.7723,0,U,39425,999,67802,.14550679E-3,.129E-4,0
BUGSAT-1 (TITA),2014-033E,2026-06-06T06:34:44.200416,15.15464086,.00272148,98.0420,249.1854,216.1807,143.7583,0,U,40014,999,65418,.37519881E-3,.7089E-4,0
SAUDISAT 4,2014-033G,2026-06-06T03:54:25.464672,14.79529501,.00461728,97.7572,303.6800,108.7535,251.8696,0,U,40016,999,64444,.12520796E-3,.902E-5,0
APRIZESAT 9,2014-033J,2026-06-05T20:56:27.875040,14.74199707,.00649777,97.9048,290.3486,235.9898,123.5128,0,U,40018,999,64189,.11882336E-3,.758E-5,0
APRIZESAT 10,2014-033K,2026-06-05T21:39:03.990528,14.70872885,.00777193,97.9637,284.1142,310.4913,48.9538,0,U,40019,999,64059,.83482703E-4,.481E-5,0
TECHDEMOSAT-1 (TDS-1),2014-037H,2026-06-05T10:54:08.197920,15.13110802,.00048564,98.3813,147.5058,318.8241,41.2621,0,U,40076,999,64645,.55206763E-3,.9708E-4,0
TECHNOSAT,2017-042E,2026-06-05T21:06:18.679968,15.04888037,.00189656,97.4274,314.9698,129.5942,230.6963,0,U,42829,999,48500,.25543908E-3,.3568E-4,0
FLYING LAPTOP,2017-042G,2026-06-06T06:04:54.033024,15.01071612,.00189929,97.4648,313.2109,157.4267,202.7797,0,U,42831,999,48481,.30174437E-3,.3816E-4,0
HAWK-A,2018-099H,2026-06-05T01:47:20.160960,15.24492931,.00338275,97.3913,208.4689,330.4373,29.4951,0,U,43765,999,41125,.26193248E-3,.6468E-4,0
HAWK-B,2018-099AN,2026-06-05T09:50:46.343904,15.22689544,.00314603,97.3962,208.2403,347.8838,12.1638,0,U,43794,999,41124,.26271095E-3,.6133E-4,0
HAWK-C,2018-099AT,2026-06-05T09:44:24.221760,15.27929611,.00394598,97.3891,209.6508,329.1129,30.7789,0,U,43799,999,41211,.27441693E-3,.7576E-4,0
SALSAT,2020-068K,2026-06-05T12:02:50.089632,15.29623212,.000921,97.8853,158.8572,354.5258,5.5879,0,U,46495,999,31357,.29741857E-3,.8465E-4,0
HAWK-2C,2021-006CT,2026-06-05T02:08:17.664576,15.34511296,.000539,97.2279,200.6410,233.3357,126.7391,0,U,47502,999,29764,.19013E-3,.628E-4,0
HAWK-2A,2021-006CW,2026-06-05T02:12:03.317184,15.34526539,.0004867,97.2322,201.3143,238.1535,121.9235,0,U,47505,999,29764,.19196E-3,.6344E-4,0
HAWK-2B,2021-006CZ,2026-06-05T02:06:30.890592,15.34594421,.0005405,97.2190,199.6615,234.8047,125.2691,0,U,47508,999,29764,.21612E-3,.7169E-4,0
HAWK-3B,2021-059BE,2026-06-05T11:05:43.256544,15.68539553,.00040242,97.6677,352.0696,23.0561,337.0879,0,U,48931,999,27601,.401188E-3,.45399E-3,0
HAWK-3C,2021-059BX,2026-06-05T11:05:16.252224,15.68544307,.00046861,97.6789,357.7354,24.2600,335.8881,0,U,48948,999,27601,.38293114E-3,.43331E-3,0
HAWK-3A,2021-059CG,2026-06-05T20:16:18.620544,15.68585351,.00045417,97.6736,355.3687,24.4003,335.7472,0,U,48957,999,27607,.48863517E-3,.555E-3,0
HAWK-5C,2022-057Y,2026-06-05T16:34:25.436352,15.50964422,.00054312,97.6586,315.6211,116.4508,243.7301,0,U,52754,999,22456,.35055651E-3,.20259E-3,0
HAWK-5B,2022-057AA,2026-06-05T16:34:12.767520,15.50964017,.00060155,97.6598,313.9695,109.4193,250.7709,0,U,52756,999,22456,.34316511E-3,.19831E-3,0
