PROBA-1                 
1 26958U 01049B   26157.25069690  .00001457  00000+0  97470-4 0  9999
2 26958  97.9597 165.4025 0055428 158.3457 202.0132 15.07443365341970
CUTE-1 (CO-55)          
1 27844U 03031E   26154.54951729  .00000336  00000+0  16425-3 0  9994
2 27844  98.6736 163.2800 0008690 219.4250 140.6297 14.24327019189732
CUBESAT XI-IV (CO-57)   
1 27848U 03031J   26156.49908036  .00000268  00000+0  13675-3 0  9995
2 27848  98.6767 164.9270 0008410 233.7946 126.2455 14.23614506189713
APRIZESAT 4             
1 35684U 09041D   26156.45646631  .00000803  00000+0  10227-3 0  9990
2 35684  98.1412 231.5431 0043259   1.5163 358.6174 14.83863132909620
APRIZESAT 3             
1 35686U 09041F   26156.86383156  .00001545  00000+0  13750-3 0  9995
2 35686  98.2058 309.5466 0062903 104.1363 256.6857 14.96210103914687
PROBA-2                 
1 36037U 09059B   26156.82371685  .00000218  00000+0  61329-4 0  9997
2 36037  98.2450 340.3343 0012347 320.3129  39.7163 14.54857570879870
APRIZESAT 5             
1 37792U 11044E   26157.06261198  .00001388  00000+0  18210-3 0  9996
2 37792  98.2452  89.7881 0053167  39.7611 320.7478 14.81051743797143
APRIZESAT 6             
1 37793U 11044F   26156.51628799  .00000814  00000+0  12180-3 0  9993
2 37793  98.2372  66.7773 0044238 122.3000  58.2477 14.76898404795428
PROBA-V                 
1 39159U 13021A   26156.87358384  .00000096  00000+0  60122-4 0  9999
2 39159  98.3579 136.0391 0004604 151.0666 209.0769 14.23594612679509
APRIZESAT 7             
1 39416U 13066A   26157.15188333  .00001540  00000+0  15777-3 0  9991
2 39416  97.7702 110.5307 0034354 247.0865 112.6726 14.91541126679589
APRIZESAT 8             
1 39425U 13066K   26157.11055121  .00001290  00000+0  14551-3 0  9996
2 39425  97.8216 104.7333 0045020 324.0466  35.7723 14.87630914678028
BUGSAT-1 (TITA)         
1 40014U 14033E   26157.27412269  .00007089  00000+0  37520-3 0  9997
2 40014  98.0420 249.1854 0027214 216.1807 143.7583 15.15464086654183
SAUDISAT 4              
1 40016U 14033G   26157.16279473  .00000902  00000+0  12521-3 0  9996
2 40016  97.7572 303.6800 0046172 108.7535 251.8696 14.79529501644441
APRIZESAT 9             
1 40018U 14033J   26156.87254485  .00000758  00000+0  11882-3 0  9999
2 40018  97.9048 290.3486 0064977 235.9898 123.5128 14.74199707641890
APRIZESAT 10            
1 40019U 14033K   26156.90212952  .00000481  00000+0  83483-4 0  9997
2 40019  97.9637 284.1142 0077719 310.4913  48.9538 14.70872885640592
TECHDEMOSAT-1 (TDS-1)   
1 40076U 14037H   26156.45426155  .00009708  00000+0  55207-3 0  9999
2 40076  98.3813 147.5058 0004856 318.8241  41.2621 15.13110802646454
TECHNOSAT               
1 42829U 17042E   26156.87938287  .00003568  00000+0  25544-3 0  9995
2 42829  97.4274 314.9698 0018965 129.5942 230.6963 15.04888037485001
FLYING LAPTOP           
1 42831U 17042G   26157.25340316  .00003816  00000+0  30174-3 0  9992
2 42831  97.4648 313.2109 0018992 157.4267 202.7797 15.01071612484811
HAWK-A                  
1 43765U 18099H   26156.07453890  .00006468  00000+0  26193-3 0  9995
2 43765  97.3913 208.4689 0033827 330.4373  29.4951 15.24492931411255
HAWK-B                  
1 43794U 18099AN  26156.41025861  .00006133  00000+0  26271-3 0  9994
2 43794  97.3962 208.2403 0031460 347.8838  12.1638 15.22689544411248
HAWK-C                  
1 43799U 18099AT  26156.40583590  .00007576  00000+0  27442-3 0  9999
2 43799  97.3891 209.6508 0039459 329.1129  30.7789 15.27929611412114
SALSAT                  
1 46495U 20068K   26156.50196863  .00008465  00000+0  29742-3 0  9991
2 46495  97.8853 158.8572 0009210 354.5258   5.5879 15.29623212313576
HAWK-2C                 
1 47502U 21006CT  26156.08909334  .00006280  00000+0  19013-3 0  9995
2 47502  97.2279 200.6410 0005390 233.3357 126.7391 15.34511296297646
HAWK-2A                 
1 47505U 21006CW  26156.09170506  .00006344  00000+0  19196-3 0  9993
2 47505  97.2322 201.3143 0004867 238.1535 121.9235 15.34526539297648
HAWK-2B                 
1 47508U 21006CZ  26156.08785753  .00007169  00000+0  21612-3 0  9993
2 47508  97.2190 199.6615 0005405 234.8047 125.2691 15.34594421297645
HAWK-3B                 
1 48931U 21059BE  26156.46230621  .00045399  00000+0  40119-3 0  9993
2 48931  97.6677 352.0696 0004024  23.0561 337.0879 15.68539553276010
HAWK-3C                 
1 48948U 21059BX  26156.46199366  .00043331  00000+0  38293-3 0  9995
2 48948  97.6789 357.7354 0004686  24.2600 335.8881 15.68544307276018
HAWK-3A                 
1 48957U 21059CG  26156.84465996  .00055500  00000+0  48864-3 0  9998
2 48957  97.6736 355.3687 0004541  24.4003 335.7472 15.68585351276077
HAWK-5C                 
1 52754U 22057Y   26156.69057218  .00020259  00000+0  35056-3 0  9996
2 52754  97.6586 315.6211 0005431 116.4508 243.7301 15.50964422224560
HAWK-5B                 
1 52756U 22057AA  26156.69042555  .00019831  00000+0  34317-3 0  9999
2 52756  97.6598 313.9695 0006015 109.4193 250.7709 15.50964017224563
